[{"OBJECT_NAME":"STARLINK-4158","OBJECT_ID":"2022-076AT","EPOCH":"2026-03-09T10:44:17.811168","MEAN_MOTION":15.0883282,"ECCENTRICITY":0.00010668,"INCLINATION":53.2166,"RA_OF_ASC_NODE":85.2085,"ARG_OF_PERICENTER":114.2778,"MEAN_ANOMALY":245.8326,"EPHEMERIS_TYPE":0,"CLASSIFICATION_TYPE":"U","NORAD_CAT_ID":53027,"ELEMENT_SET_NO":999,"REV_AT_EPOCH":20295,"BSTAR":7.6066553e-5,"MEAN_MOTION_DOT":9.23e-6,"MEAN_MOTION_DDOT":0},{"OBJECT_NAME":"JILIN-01 KUANFU 02B 2","OBJECT_ID":"2024-169B","EPOCH":"2026-03-09T21:55:18.103008","MEAN_MOTION":15.09238424,"ECCENTRICITY":0.0011661,"INCLINATION":97.5565,"RA_OF_ASC_NODE":159.2927,"ARG_OF_PERICENTER":15.7533,"MEAN_ANOMALY":344.4056,"EPHEMERIS_TYPE":0,"CLASSIFICATION_TYPE":"U","NORAD_CAT_ID":61190,"ELEMENT_SET_NO":999,"REV_AT_EPOCH":8085,"BSTAR":0.0003793675,"MEAN_MOTION_DOT":5.983e-5,"MEAN_MOTION_DDOT":0}]
